[{"OBJECT_NAME":"STARLINK-3297","OBJECT_ID":"2021-125D","EPOCH":"2026-03-09T18:16:46.289568","MEAN_MOTION":15.08837403,"ECCENTRICITY":0.00014564,"INCLINATION":53.2175,"RA_OF_ASC_NODE":258.8095,"ARG_OF_PERICENTER":97.4511,"MEAN_ANOMALY":262.6647,"EPHEMERIS_TYPE":0,"CLASSIFICATION_TYPE":"U","NORAD_CAT_ID":50159,"ELEMENT_SET_NO":999,"REV_AT_EPOCH":23646,"BSTAR":5.074044e-6,"MEAN_MOTION_DOT":-2.07e-6,"MEAN_MOTION_DDOT":0},{"OBJECT_NAME":"FENGYUN 1C DEB","OBJECT_ID":"1999-025AVL","EPOCH":"2026-03-06T12:53:29.086080","MEAN_MOTION":14.83381217,"ECCENTRICITY":0.01434433,"INCLINATION":98.8652,"RA_OF_ASC_NODE":274.6705,"ARG_OF_PERICENTER":90.518,"MEAN_ANOMALY":301.133,"EPHEMERIS_TYPE":0,"CLASSIFICATION_TYPE":"U","NORAD_CAT_ID":30826,"ELEMENT_SET_NO":999,"REV_AT_EPOCH":1528,"BSTAR":0.00060190522,"MEAN_MOTION_DOT":5.85e-5,"MEAN_MOTION_DDOT":0}]
